NORAD_CAT_ID,OBJECT_NAME,OBJECT_TYPE,EPOCH,MEAN_MOTION,ECCENTRICITY,INCLINATION,RA_OF_ASC_NODE,ARG_OF_PERICENTER,MEAN_ANOMALY,BSTAR,MEAN_MOTION_DOT,MEAN_MOTION_DDOT,TLE_LINE0,TLE_LINE1,TLE_LINE2,SEMIMAJOR_AXIS,PERIOD,APOGEE,PERIGEE,DECAYED
52479.0,STARLINK-3878,PAYLOAD,2022-07-18 22:00:00,15.57900539,0.0001252999999999,53.2175,262.8575,62.0656,199.3936,-0.015418,-0.01065853,0.0,0 STARLINK-3878,1 52479U 22049AE  22199.91667824 -.01065853  00000-0 -15418-1 0  9990,2 52479  53.2175 262.8575 0001253  62.0656 199.3936 15.57900539  1301,6771.871,92.432,394.585,392.888,0.0
52479.0,STARLINK-3878,PAYLOAD,2022-07-19 14:00:01,15.56378287,0.0001308,53.2174,259.6368,47.699,353.0036,-0.016231,-0.01060135,0.0,0 STARLINK-3878,1 52479U 22049AE  22200.58334491 -.01060135  00000-0 -16231-1 0  9999,2 52479  53.2174 259.6368 0001308  47.6990 353.0036 15.56378287 11843,6776.286,92.522,399.037,397.265,0.0
52479.0,STARLINK-3878,PAYLOAD,2022-07-19 22:00:00,15.55618773,0.0001349,53.2175,258.0266,51.2467,57.7096,-0.016692,-0.01059825,0.0,0 STARLINK-3878,1 52479U 22049AE  22200.91667824 -.01059825  00000-0 -16692-1 0  9990,2 52479  53.2175 258.0266 0001349  51.2467  57.7096 15.55618773  1309,6778.4919999999975,92.568,401.271,399.442,0.0
52479.0,STARLINK-3878,PAYLOAD,2022-07-20 06:00:00,15.54859009,0.0001525,53.2177,256.4201,51.0504,125.2457,-0.017152,-0.01058913,0.0,0 STARLINK-3878,1 52479U 22049AE  22201.25001157 -.01058913  00000-0 -17152-1 0  9998,2 52479  53.2177 256.4201 0001525  51.0504 125.2457 15.54859009 11949,6780.7,92.613,403.599,401.53,0.0
52479.0,STARLINK-3878,PAYLOAD,2022-07-20 14:00:01,15.54097401,0.0001329,53.2176,254.817,62.5874,180.1357,-0.017569,-0.01054945,0.0,0 STARLINK-3878,1 52479U 22049AE  22201.58334491 -.01054945  00000-0 -17569-1 0  9997,2 52479  53.2176 254.8170 0001329  62.5874 180.1357 15.54097401  1302,6782.915,92.658,405.681,403.878,0.0
52479.0,STARLINK-3878,PAYLOAD,2022-07-20 22:00:01,15.53341662,0.0001262999999999,53.2175,253.2121,52.5583,255.7441,-0.01819,-0.01061696,0.0,0 STARLINK-3878,1 52479U 22049AE  22201.91668981 -.01061696  00000-0 -18190-1 0  9990,2 52479  53.2175 253.2121 0001263  52.5583 255.7441 15.53341662  1306,6785.115,92.703,407.836,406.12300000000016,0.0
52479.0,STARLINK-3878,PAYLOAD,2022-07-21 06:00:00,15.52583146,0.0001415,53.2177,251.6114,41.0893,331.7495,-0.018721,-0.01062822,0.0,0 STARLINK-3878,1 52479U 22049AE  22202.25001157 -.01062822  00000-0 -18721-1 0  9996,2 52479  53.2177 251.6114 0001415  41.0893 331.7495 15.52583146 12106,6787.324000000001,92.749,410.15,408.229,0.0
52479.0,STARLINK-3878,PAYLOAD,2022-07-21 14:00:01,15.51818822,0.000131,53.2173,250.0135,55.5585,21.0352,-0.019083,-0.01054555,0.0,0 STARLINK-3878,1 52479U 22049AE  22202.58335648 -.01054555  00000-0 -19083-1 0  9993,2 52479  53.2173 250.0135 0001310  55.5585  21.0352 15.51818822  1302,6789.553000000001,92.794,412.307,410.528,0.0
52479.0,STARLINK-3878,PAYLOAD,2022-07-21 22:00:00,15.51046859,0.0001468,53.2174,248.4144,51.8759,87.4335,-0.019087,-0.01028398,0.0,0 STARLINK-3878,1 52479U 22049AE  22202.91667824 -.01028398  00000-0 -19087-1 0  9994,2 52479  53.2174 248.4144 0001468  51.8759  87.4335 15.51046859  1300,6791.805,92.841,414.667,412.673,0.0
52479.0,STARLINK-3878,PAYLOAD,2022-07-22 06:00:00,15.50210752,0.0001513,53.2175,246.8197,58.4166,142.7604,-0.0078132999999999,-0.0042555,0.0,0 STARLINK-3878,1 52479U 22049AE  22203.25001157 -.00425550  00000-0 -78133-2 0  9991,2 52479  53.2175 246.8197 0001513  58.4166 142.7604 15.50210752  1305,6794.246999999999,92.891,417.14,415.084,0.0
52479.0,STARLINK-3878,PAYLOAD,2022-07-22 12:00:00,15.49880032,0.0001493,53.2175,245.6257,56.4076,100.6597,0.00015431,8.314e-05,0.0,0 STARLINK-3878,1 52479U 22049AE  22203.50001157  .00008314  00000-0  15431-3 0  9995,2 52479  53.2175 245.6257 0001493  56.4076 100.6597 15.49880032 12290,6795.214,92.91,418.093,416.064,0.0
52479.0,STARLINK-3878,PAYLOAD,2022-07-22 22:00:00,15.49883986,0.0001235,53.2174,243.6324,64.7858,258.4235,4.3658e-05,2.027e-05,0.0,0 STARLINK-3878,1 52479U 22049AE  22203.91667824  .00002027  00000-0  43658-4 0  9997,2 52479  53.2174 243.6324 0001235  64.7858 258.4235 15.49883986  1308,6795.2019999999975,92.91,417.906,416.228,0.0
52479.0,STARLINK-3878,PAYLOAD,2022-07-23 08:00:01,15.50026083,0.0001574,53.215,241.6473,45.1089,84.3136,-0.0047928999999999,-0.00264814,0.0,0 STARLINK-3878,1 52479U 22049AE  22204.33334491 -.00264814  00000-0 -47929-2 0  9994,2 52479  53.2150 241.6473 0001574  45.1089  84.3136 15.50026083 12420,6794.7869999999975,92.902,417.721,415.582,0.0
52479.0,STARLINK-3878,PAYLOAD,2022-07-23 14:00:01,15.49940256,0.0001571999999999,53.2156,240.4507,34.2307,50.9889,-0.011862,-0.0062383999999999,0.0,0 STARLINK-3878,1 52479U 22049AE  22204.58335648 -.00623840  00000-0 -11862-1 0  9990,2 52479  53.2156 240.4507 0001572  34.2307  50.9889 15.49940256  1305,6795.038000000001,92.907,417.971,415.834,0.0
52479.0,STARLINK-3878,PAYLOAD,2022-07-23 16:00:00,15.49785024,0.0001581,53.2158,240.051,36.3444,154.0566,-0.010374,-0.00547886,0.0,0 STARLINK-3878,1 52479U 22049AE  22204.66667824 -.00547886  00000-0 -10374-1 0  9995,2 52479  53.2158 240.0510 0001581  36.3444 154.0566 15.49785024 12470,6795.491,92.916,418.431,416.282,0.0
52479.0,STARLINK-3878,PAYLOAD,2022-07-23 22:00:00,15.49663227,0.0001537,53.2172,238.8529,43.1625,102.6689,-0.020674,-0.01057297,0.0,0 STARLINK-3878,1 52479U 22049AE  22204.91667824 -.01057297  00000-0 -20674-1 0  9990,2 52479  53.2172 238.8529 0001537  43.1625 102.6689 15.49663227  1304,6795.847,92.923,418.757,416.668,0.0
52479.0,STARLINK-3878,PAYLOAD,2022-07-24 14:00:01,15.48142414,0.0001463,53.2173,235.6713,47.9615,217.3226,-0.021779,-0.01055615,0.0,0 STARLINK-3878,1 52479U 22049AE  22205.58334491 -.01055615  00000-0 -21779-1 0  9994,2 52479  53.2173 235.6713 0001463  47.9615 217.3226 15.48142414  1304,6800.297,93.015,423.157,421.167,0.0
52479.0,STARLINK-3878,PAYLOAD,2022-07-24 22:00:00,15.47381829,0.0001319,53.2174,234.0808,47.6736,275.9692,-0.022352,-0.01054892,0.0,0 STARLINK-3878,1 52479U 22049AE  22205.91667824 -.01054892  00000-0 -22352-1 0  9994,2 52479  53.2174 234.0808 0001319  47.6736 275.9692 15.47381829  1305,6802.526,93.06,425.288,423.49300000000005,0.0
52479.0,STARLINK-3878,PAYLOAD,2022-07-25 14:00:01,15.45864346,0.0001409999999999,53.2171,230.9108,47.0416,30.5749,-0.02359,-0.01055973,0.0,0 STARLINK-3878,1 52479U 22049AE  22206.58334491 -.01055973  00000-0 -23590-1 0  9995,2 52479  53.2171 230.9108 0001410  47.0416  30.5749 15.45864346 12770,6806.977,93.152,429.801,427.882,0.0
52479.0,STARLINK-3878,PAYLOAD,2022-07-25 22:00:00,15.45103734,0.0001557,53.2173,229.3259,44.6806,88.5564,-0.024197,-0.01055197,0.0,0 STARLINK-3878,1 52479U 22049AE  22206.91667824 -.01055197  00000-0 -24197-1 0  9993,2 52479  53.2173 229.3259 0001557  44.6806  88.5564 15.45103734  1301,6809.21,93.198,432.135,430.015,0.0
52479.0,STARLINK-3878,PAYLOAD,2022-07-26 06:00:00,15.44343212,0.0001647,53.2175,227.7456,47.4945,140.4482,-0.024779,-0.01052976,0.0,0 STARLINK-3878,1 52479U 22049AE  22207.25001157 -.01052976  00000-0 -24779-1 0  9990,2 52479  53.2175 227.7456 0001647  47.4945 140.4482 15.44343212 12876,6811.446,93.244,434.432,432.189,0.0
52479.0,STARLINK-3878,PAYLOAD,2022-07-26 14:00:01,15.43586779,0.0001395,53.2171,226.1667,57.9361,183.7984,-0.025546,-0.01057368,0.0,0 STARLINK-3878,1 52479U 22049AE  22207.58334491 -.01057368  00000-0 -25546-1 0  9999,2 52479  53.2171 226.1667 0001395  57.9361 183.7984 15.43586779  1306,6813.670999999999,93.289,436.486,434.585,0.0
52479.0,STARLINK-3878,PAYLOAD,2022-07-26 22:00:00,15.42824218,0.0001373,53.2173,224.5871,50.1136,244.5041,-0.026093,-0.0105283999999999,0.0,0 STARLINK-3878,1 52479U 22049AE  22207.91667824 -.01052840  00000-0 -26093-1 0  9993,2 52479  53.2173 224.5871 0001373  50.1136 244.5041 15.42824218  1300,6815.916,93.335,438.717,436.845,0.0
52479.0,STARLINK-3878,PAYLOAD,2022-07-27 06:00:02,15.4206698,0.0001546,53.2173,223.0124,39.3248,307.3235,-0.026857,-0.01070827,0.0,0 STARLINK-3878,1 52479U 22049AE  22208.25002315 -.01070827  00000-0 -26857-1 0  9992,2 52479  53.2173 223.0124 0001546  39.3248 307.3235 15.42066980 13030,6818.147,93.381,441.066,438.958,0.0
52479.0,STARLINK-3878,PAYLOAD,2022-07-27 14:00:01,15.41307692,0.0001359,53.2172,221.4388,46.4967,351.1424,-0.027538,-0.01070333,0.0,0 STARLINK-3878,1 52479U 22049AE  22208.58334491 -.01070333  00000-0 -27538-1 0  9990,2 52479  53.2172 221.4388 0001359  46.4967 351.1424 15.41307692  1303,6820.386,93.427,443.17800000000005,441.324,0.0
52479.0,STARLINK-3878,PAYLOAD,2022-07-27 22:00:00,15.40546713,0.0001626,53.2173,219.8646,38.5613,49.2228,-0.028224,-0.01069589,0.0,0 STARLINK-3878,1 52479U 22049AE  22208.91667824 -.01069589  00000-0 -28224-1 0  9990,2 52479  53.2173 219.8646 0001626  38.5613  49.2228 15.40546713  1304,6822.632,93.473,445.606,443.387,0.0
52479.0,STARLINK-3878,PAYLOAD,2022-07-28 08:00:01,15.39597275,0.0001728,53.2174,217.9037,43.8686,195.30900000000003,-0.029091,-0.01068353,0.0,0 STARLINK-3878,1 52479U 22049AE  22209.33334491 -.01068353  00000-0 -29091-1 0  9999,2 52479  53.2174 217.9037 0001728  43.8686 195.3090 15.39597275 13197,6825.436,93.531,448.481,446.122,0.0
52479.0,STARLINK-3878,PAYLOAD,2022-07-28 14:00:01,15.39029034,0.0001563,53.2172,216.7271,50.6201,134.7098,-0.029711,-0.01070588,0.0,0 STARLINK-3878,1 52479U 22049AE  22209.58334491 -.01070588  00000-0 -29711-1 0  9998,2 52479  53.2172 216.7271 0001563  50.6201 134.7098 15.39029034  1306,6827.116,93.565,450.048,447.914,0.0
52479.0,STARLINK-3878,PAYLOAD,2022-07-28 22:00:00,15.38268168,0.0001446,53.2173,215.1584,57.4948,175.2416,-0.030409,-0.01068779,0.0,0 STARLINK-3878,1 52479U 22049AE  22209.91667824 -.01068779  00000-0 -30409-1 0  9999,2 52479  53.2173 215.1584 0001446  57.4948 175.2416 15.38268168  1306,6829.3669999999975,93.612,452.22,450.245,0.0
